{
  "type": "FeatureCollection",
  "features": [
    {
      "type": "Feature",
      "properties": {
        "norad_id": 41581,
        "name": "INTELSAT 31 (IS-31)",
        "group": "intelsat",
        "lat": 0.011457147083247242,
        "lon": 90.76649993831967,
        "alt_km": 35791.26135928868,
        "timestamp": "2025-12-11T07:02:23.401713+00:00",
        "meta_object_name": "INTELSAT 31 (IS-31)",
        "meta_object_id": "2016-035A",
        "meta_epoch": "2025-12-10T19:56:16.821600",
        "meta_mean_motion": 1.00271525,
        "meta_eccentricity": 0.00020758,
        "meta_inclination": 0.0162,
        "meta_ra_of_asc_node": 271.4826,
        "meta_arg_of_pericenter": 304.6035,
        "meta_mean_anomaly": 67.7207,
        "meta_ephemeris_type": 0,
        "meta_classification_type": "U",
        "meta_norad_cat_id": 41581,
        "meta_element_set_no": 999,
        "meta_rev_at_epoch": 3479,
        "meta_bstar": 0,
        "meta_mean_motion_dot": -1.46e-06,
        "meta_mean_motion_ddot": 0,
        "tle_line1": "1 41581U 16035A   25344.83075025 -.00000146  00000+0  00000+0 0  9992",
        "tle_line2": "2 41581   0.0162 271.4826 0002075 304.6035  67.7207  1.00271525 34790"
      },
      "geometry": {
        "type": "Point",
        "coordinates": [
          90.76649993831967,
          0.011457147083247242
        ]
      }
    },
    {
      "type": "Feature",
      "properties": {
        "norad_id": 41747,
        "name": "INTELSAT 36 (IS-36)",
        "group": "intelsat",
        "lat": -0.028820924462556775,
        "lon": -105.68103343743685,
        "alt_km": 35784.06196914761,
        "timestamp": "2025-12-11T07:02:23.401725+00:00",
        "meta_object_name": "INTELSAT 36 (IS-36)",
        "meta_object_id": "2016-053A",
        "meta_epoch": "2025-12-10T20:42:57.349728",
        "meta_mean_motion": 1.00270287,
        "meta_eccentricity": 0.00014578,
        "meta_inclination": 0.0137,
        "meta_ra_of_asc_node": 10.9589,
        "meta_arg_of_pericenter": 310.1726,
        "meta_mean_anomaly": 137.9263,
        "meta_ephemeris_type": 0,
        "meta_classification_type": "U",
        "meta_norad_cat_id": 41747,
        "meta_element_set_no": 999,
        "meta_rev_at_epoch": 3406,
        "meta_bstar": 0,
        "meta_mean_motion_dot": -1.9e-07,
        "meta_mean_motion_ddot": 0,
        "tle_line1": "1 41747U 16053A   25344.86316377 -.00000019  00000+0  00000+0 0  9996",
        "tle_line2": "2 41747   0.0137  10.9589 0001457 310.1726 137.9263  1.00270287 34066"
      },
      "geometry": {
        "type": "Point",
        "coordinates": [
          -105.68103343743685,
          -0.028820924462556775
        ]
      }
    },
    {
      "type": "Feature",
      "properties": {
        "norad_id": 41945,
        "name": "INTELSAT 32E (IS-32E)",
        "group": "intelsat",
        "lat": 0.030568875785509007,
        "lon": 142.66653561405212,
        "alt_km": 35788.31807720303,
        "timestamp": "2025-12-11T07:02:23.401737+00:00",
        "meta_object_name": "INTELSAT 32E (IS-32E)",
        "meta_object_id": "2017-007B",
        "meta_epoch": "2025-12-10T20:11:07.899360",
        "meta_mean_motion": 1.00269594,
        "meta_eccentricity": 4.5e-05,
        "meta_inclination": 0.0329,
        "meta_ra_of_asc_node": 78.2617,
        "meta_arg_of_pericenter": 277.7793,
        "meta_mean_anomaly": 343.3698,
        "meta_ephemeris_type": 0,
        "meta_classification_type": "U",
        "meta_norad_cat_id": 41945,
        "meta_element_set_no": 999,
        "meta_rev_at_epoch": 3233,
        "meta_bstar": 0,
        "meta_mean_motion_dot": -2.64e-06,
        "meta_mean_motion_ddot": 0,
        "tle_line1": "1 41945U 17007B   25344.84106365 -.00000264  00000+0  00000+0 0  9990",
        "tle_line2": "2 41945   0.0329  78.2617 0000450 277.7793 343.3698  1.00269594 32334"
      },
      "geometry": {
        "type": "Point",
        "coordinates": [
          142.66653561405212,
          0.030568875785509007
        ]
      }
    },
    {
      "type": "Feature",
      "properties": {
        "norad_id": 42818,
        "name": "INTELSAT 35E (IS-35E)",
        "group": "intelsat",
        "lat": 0.009568622451893513,
        "lon": 151.31012041993813,
        "alt_km": 35791.066963166886,
        "timestamp": "2025-12-11T07:02:23.401749+00:00",
        "meta_object_name": "INTELSAT 35E (IS-35E)",
        "meta_object_id": "2017-041A",
        "meta_epoch": "2025-12-10T20:13:37.659936",
        "meta_mean_motion": 1.00269218,
        "meta_eccentricity": 0.00022208,
        "meta_inclination": 0.0174,
        "meta_ra_of_asc_node": 351.4146,
        "meta_arg_of_pericenter": 276.7006,
        "meta_mean_anomaly": 80.5912,
        "meta_ephemeris_type": 0,
        "meta_classification_type": "U",
        "meta_norad_cat_id": 42818,
        "meta_element_set_no": 999,
        "meta_rev_at_epoch": 3092,
        "meta_bstar": 0,
        "meta_mean_motion_dot": -2.33e-06,
        "meta_mean_motion_ddot": 0,
        "tle_line1": "1 42818U 17041A   25344.84279699 -.00000233  00000+0  00000+0 0  9995",
        "tle_line2": "2 42818   0.0174 351.4146 0002220 276.7006  80.5912  1.00269218 30923"
      },
      "geometry": {
        "type": "Point",
        "coordinates": [
          151.31012041993813,
          0.009568622451893513
        ]
      }
    },
    {
      "type": "Feature",
      "properties": {
        "norad_id": 42950,
        "name": "INTELSAT 37E (IS-37E)",
        "group": "intelsat",
        "lat": -0.008403267825045265,
        "lon": 167.80247921258942,
        "alt_km": 35788.950958402114,
        "timestamp": "2025-12-11T07:02:23.401760+00:00",
        "meta_object_name": "INTELSAT 37E (IS-37E)",
        "meta_object_id": "2017-059A",
        "meta_epoch": "2025-12-10T20:18:14.717088",
        "meta_mean_motion": 1.00264813,
        "meta_eccentricity": 0.00032474,
        "meta_inclination": 0.0189,
        "meta_ra_of_asc_node": 332.7984,
        "meta_arg_of_pericenter": 288.7802,
        "meta_mean_anomaly": 104.7992,
        "meta_ephemeris_type": 0,
        "meta_classification_type": "U",
        "meta_norad_cat_id": 42950,
        "meta_element_set_no": 999,
        "meta_rev_at_epoch": 3017,
        "meta_bstar": 0,
        "meta_mean_motion_dot": -1.37e-06,
        "meta_mean_motion_ddot": 0,
        "tle_line1": "1 42950U 17059A   25344.84600367 -.00000137  00000+0  00000+0 0  9994",
        "tle_line2": "2 42950   0.0189 332.7984 0003247 288.7802 104.7992  1.00264813 30175"
      },
      "geometry": {
        "type": "Point",
        "coordinates": [
          167.80247921258942,
          -0.008403267825045265
        ]
      }
    },
    {
      "type": "Feature",
      "properties": {
        "norad_id": 43632,
        "name": "AZERSPACE 2 (IS-38)",
        "group": "intelsat",
        "lat": -0.030309048741932625,
        "lon": -129.05566538959783,
        "alt_km": 35781.10812339327,
        "timestamp": "2025-12-11T07:02:23.401772+00:00",
        "meta_object_name": "AZERSPACE 2 (IS-38)",
        "meta_object_id": "2018-074A",
        "meta_epoch": "2025-12-10T20:37:57.751680",
        "meta_mean_motion": 1.00271379,
        "meta_eccentricity": 0.00014693,
        "meta_inclination": 0.0176,
        "meta_ra_of_asc_node": 358.3835,
        "meta_arg_of_pericenter": 268.4691,
        "meta_mean_anomaly": 167.5717,
        "meta_ephemeris_type": 0,
        "meta_classification_type": "U",
        "meta_norad_cat_id": 43632,
        "meta_element_set_no": 999,
        "meta_rev_at_epoch": 2655,
        "meta_bstar": 0,
        "meta_mean_motion_dot": 1.41e-06,
        "meta_mean_motion_ddot": 0,
        "tle_line1": "1 43632U 18074A   25344.85969620  .00000141  00000+0  00000+0 0  9995",
        "tle_line2": "2 43632   0.0176 358.3835 0001469 268.4691 167.5717  1.00271379 26557"
      },
      "geometry": {
        "type": "Point",
        "coordinates": [
          -129.05566538959783,
          -0.030309048741932625
        ]
      }
    },
    {
      "type": "Feature",
      "properties": {
        "norad_id": 43633,
        "name": "HORIZONS-3E",
        "group": "intelsat",
        "lat": 0.017668066712968784,
        "lon": -5.132324356984354,
        "alt_km": 35785.47430013536,
        "timestamp": "2025-12-11T07:02:23.401784+00:00",
        "meta_object_name": "HORIZONS-3E",
        "meta_object_id": "2018-074B",
        "meta_epoch": "2025-12-10T19:28:56.939232",
        "meta_mean_motion": 1.00269493,
        "meta_eccentricity": 0.0001199,
        "meta_inclination": 0.0426,
        "meta_ra_of_asc_node": 178.6641,
        "meta_arg_of_pericenter": 100.4377,
        "meta_mean_anomaly": 261.9253,
        "meta_ephemeris_type": 0,
        "meta_classification_type": "U",
        "meta_norad_cat_id": 43633,
        "meta_element_set_no": 999,
        "meta_rev_at_epoch": 2645,
        "meta_bstar": 0,
        "meta_mean_motion_dot": -2.6e-07,
        "meta_mean_motion_ddot": 0,
        "tle_line1": "1 43633U 18074B   25344.81177013 -.00000026  00000+0  00000+0 0  9992",
        "tle_line2": "2 43633   0.0426 178.6641 0001199 100.4377 261.9253  1.00269493 26457"
      },
      "geometry": {
        "type": "Point",
        "coordinates": [
          -5.132324356984354,
          0.017668066712968784
        ]
      }
    }
  ]
}